     2.01           GLONASS NAV DATA                        RINEX VERSION / TYPE
CCRINEXG V1.4 UX    CDDIS               22-FEB-23 23:33     PGM / RUN BY / DATE 
IGS BROADCAST EPHEMERIS FILE                                COMMENT             
teqc  2020Oct7      UNAVCO Archive Ops  20230222  0:52:     COMMENT             
  2023     2    21   -0.931322574616D-09                    CORR TO SYSTEM TIME 
    18                                                      LEAP SECONDS        
                                                            END OF HEADER       
21 23  2 21  2 45  0.0-0.374901108444D-03-0.272848410532D-11 0.990000000000D+04
    0.103167187500D+05 0.253834915161D+01 0.465661287308D-08 0.000000000000D+00
   -0.125137578125D+05-0.926439285278D+00-0.186264514923D-08 0.400000000000D+01
    0.196840610352D+05-0.192116641998D+01-0.931322574616D-09 0.000000000000D+00
22 23  2 21  2 45  0.0 0.718599185348D-04 0.181898940355D-11 0.990000000000D+04
   -0.617483496094D+04 0.302432823181D+01 0.186264514923D-08 0.000000000000D+00
   -0.947944531250D+04-0.795147895813D+00 0.000000000000D+00-0.300000000000D+01
    0.228886298828D+05 0.488903045654D+00-0.279396772385D-08 0.000000000000D+00
23 23  2 21  2 45  0.0-0.733574852347D-04-0.909494701773D-12 0.990000000000D+04
   -0.220414550781D+05 0.174205970764D+01-0.279396772385D-08 0.000000000000D+00
    0.710440429688D+03-0.312034606934D+00 0.279396772385D-08 0.300000000000D+01
    0.128049995117D+05 0.301569747925D+01-0.279396772385D-08 0.000000000000D+00
24 23  2 21  2 45  0.0 0.148366205394D-03 0.272848410532D-11 0.900000000000D+04
   -0.236073496094D+05-0.393663406372D+00-0.558793544769D-08 0.000000000000D+00
    0.904521777344D+04 0.313486099243D+00 0.372529029846D-08 0.200000000000D+01
   -0.340581933594D+04 0.354038429260D+01-0.186264514923D-08 0.000000000000D+00
25 23  2 21  2 45  0.0 0.556753948331D-04 0.909494701773D-12 0.900000000000D+04
    0.126508759766D+05 0.240272998810D+01 0.465661287308D-08 0.600000000000D+01
   -0.123604570312D+05-0.755005836487D+00-0.186264514923D-08-0.500000000000D+01
    0.183808027344D+05-0.216346454620D+01-0.931322574616D-09 0.000000000000D+00
 1 23  2 21  3 15  0.0 0.234255567193D-04 0.000000000000D+00 0.108000000000D+05
   -0.952060791016D+04 0.883350372315D-01-0.000000000000D+00 0.000000000000D+00
   -0.108043989258D+05-0.288223171234D+01 0.279396772385D-08 0.100000000000D+01
   -0.210468222656D+05 0.144012928009D+01 0.279396772385D-08 0.000000000000D+00
 2 23  2 21  3 15  0.0-0.232383608818D-04-0.000000000000D+00 0.108000000000D+05
   -0.107195288086D+05 0.318317413330D+00-0.372529029846D-08 0.000000000000D+00
    0.950350732422D+04-0.287934684753D+01 0.279396772385D-08-0.400000000000D+01
   -0.210405302734D+05-0.146549415588D+01 0.186264514923D-08 0.000000000000D+00
 3 23  2 21  3 15  0.0 0.729076564312D-04 0.000000000000D+00 0.108000000000D+05
   -0.578003027344D+04 0.243922233582D+00-0.558793544769D-08 0.000000000000D+00
    0.233393471680D+05-0.114159774780D+01 0.931322574616D-09 0.500000000000D+01
   -0.837944335938D+04-0.333374691009D+01-0.000000000000D+00 0.000000000000D+00
 4 23  2 21  3 15  0.0 0.176636502147D-03 0.181898940355D-11 0.108000000000D+05
    0.203052099609D+04 0.774269104004D-01-0.372529029846D-08 0.000000000000D+00
    0.239135571289D+05 0.119163799286D+01-0.000000000000D+00 0.600000000000D+01
    0.865459912109D+04-0.332416629791D+01-0.186264514923D-08 0.000000000000D+00
 5 23  2 21  3 15  0.0 0.108111649752D-03 0.909494701773D-12 0.117300000000D+05
    0.880754394531D+04-0.169096946716D+00 0.000000000000D+00 0.000000000000D+00
    0.115162006836D+05 0.286927795410D+01-0.186264514923D-08 0.100000000000D+01
    0.209950688477D+05-0.150621414185D+01-0.186264514923D-08 0.000000000000D+00
 6 23  2 21  3 15  0.0-0.964906066656D-04-0.181898940355D-11 0.117000000000D+05
    0.103813593750D+05-0.209940910339D+00 0.372529029846D-08 0.000000000000D+00
   -0.110669213867D+05 0.280089378357D+01-0.279396772385D-08-0.400000000000D+01
    0.205048627930D+05 0.161536216736D+01-0.931322574616D-09 0.000000000000D+00
 7 23  2 21  3 15  0.0 0.503491610289D-04 0.909494701773D-12 0.117000000000D+05
    0.553259472656D+04-0.248959541321D+00 0.558793544769D-08 0.000000000000D+00
   -0.237098759766D+05 0.103554248810D+01-0.931322574616D-09 0.500000000000D+01
    0.773916943359D+04 0.336426448822D+01 0.000000000000D+00 0.000000000000D+00
 8 23  2 21  3 15  0.0-0.695148482919D-04 0.000000000000D+00 0.127800000000D+05
   -0.221278125000D+04-0.665512084961D-01 0.372529029846D-08 0.000000000000D+00
   -0.238875976562D+05-0.120319366455D+01 0.000000000000D+00 0.600000000000D+01
   -0.865504101562D+04 0.331118679047D+01 0.186264514923D-08 0.000000000000D+00
 9 23  2 21  3 15  0.0 0.105248764157D-03 0.272848410532D-11 0.108000000000D+05
    0.179496645508D+05 0.211735916138D+01 0.931322574616D-09 0.000000000000D+00
    0.923152343750D+03 0.129154586792D+01-0.279396772385D-08-0.200000000000D+01
   -0.181223188477D+05 0.215445995331D+01 0.279396772385D-08 0.000000000000D+00
10 23  2 21  3 15  0.0-0.907443463802D-04-0.000000000000D+00 0.108000000000D+05
    0.510489160156D+04 0.261502361298D+01 0.931322574616D-09 0.000000000000D+00
   -0.986314892578D+04 0.174054336548D+01-0.000000000000D+00-0.700000000000D+01
   -0.229801391602D+05-0.158926010132D+00 0.372529029846D-08 0.000000000000D+00
11 23  2 21  3 15  0.0-0.741239637137D-05-0.545696821064D-11 0.108000000000D+05
   -0.119508793945D+05 0.167176914215D+01 0.931322574616D-09 0.000000000000D+00
   -0.165969721680D+05 0.125553035736D+01 0.279396772385D-08 0.000000000000D+00
   -0.152307578125D+05-0.267997455597D+01 0.186264514923D-08 0.000000000000D+00
12 23  2 21  3 15  0.0 0.251596793532D-04 0.909494701773D-12 0.117000000000D+05
   -0.217559721680D+05-0.410083770752D+00 0.000000000000D+00 0.000000000000D+00
   -0.130252602539D+05-0.945711135864D-01 0.372529029846D-08-0.100000000000D+01
    0.288845898438D+04-0.353473377228D+01-0.931322574616D-09 0.000000000000D+00
13 23  2 21  3 15  0.0-0.322414562106D-04 0.000000000000D+00 0.117000000000D+05
   -0.187508354492D+05-0.201067733765D+01 0.000000000000D+00 0.000000000000D+00
   -0.252697753906D+04-0.120861053467D+01 0.279396772385D-08-0.200000000000D+01
    0.170890151367D+05-0.238124561310D+01-0.279396772385D-08 0.000000000000D+00
14 23  2 21  3 15  0.0 0.243699178100D-04 0.000000000000D+00 0.119400000000D+05
   -0.356296191406D+04-0.258157157898D+01-0.931322574616D-09 0.000000000000D+00
    0.109268310547D+05-0.174507522583D+01 0.000000000000D+00-0.700000000000D+01
    0.227769672852D+05 0.432083129883D+00-0.372529029846D-08 0.000000000000D+00
15 23  2 21  3 15  0.0 0.909399241209D-04-0.000000000000D+00 0.108000000000D+05
    0.126498251953D+05-0.155715179443D+01-0.000000000000D+00 0.000000000000D+00
    0.169032705078D+05-0.119427299499D+01-0.279396772385D-08 0.000000000000D+00
    0.143269804688D+05 0.278597068787D+01-0.186264514923D-08 0.000000000000D+00
16 23  2 21  3 15  0.0 0.115325674415D-04 0.909494701773D-12 0.108000000000D+05
    0.217972333984D+05 0.382391929626D+00 0.000000000000D+00 0.000000000000D+00
    0.130402343750D+05 0.440645217895D-01-0.372529029846D-08-0.100000000000D+01
   -0.250473193359D+04 0.355205059051D+01 0.931322574616D-09 0.000000000000D+00
17 23  2 21  3 15  0.0 0.606694258749D-03 0.272848410532D-11 0.108000000000D+05
   -0.155785644531D+05-0.167480850220D+01-0.558793544769D-08 0.000000000000D+00
    0.144516040039D+05 0.989875793457D+00 0.372529029846D-08 0.400000000000D+01
   -0.141242954102D+05 0.285495567322D+01 0.000000000000D+00 0.000000000000D+00
18 23  2 21  3 15  0.0 0.678580254316D-04 0.909494701773D-12 0.108000000000D+05
    0.235538574219D+03-0.283908748627D+01-0.279396772385D-08 0.000000000000D+00
    0.112046499023D+05 0.135277843475D+01 0.931322574616D-09-0.300000000000D+01
   -0.228905043945D+05 0.637755393982D+00 0.279396772385D-08 0.000000000000D+00
19 23  2 21  3 15  0.0-0.222636386752D-03-0.909494701773D-12 0.108000000000D+05
    0.147899648438D+05-0.263161849976D+01 0.000000000000D+00 0.000000000000D+00
    0.355801318359D+04 0.990757942200D+00-0.186264514923D-08 0.300000000000D+01
   -0.204744355469D+05-0.172813415527D+01 0.279396772385D-08 0.000000000000D+00
20 23  2 21  3 15  0.0-0.880816951394D-04 0.000000000000D+00 0.108000000000D+05
    0.238407744141D+05-0.561870574951D+00 0.372529029846D-08 0.000000000000D+00
   -0.838151855469D+04-0.416030883789D-01-0.372529029846D-08 0.200000000000D+01
   -0.364355468750D+04-0.356590652466D+01 0.186264514923D-08 0.000000000000D+00
21 23  2 21  3 15  0.0-0.374905765057D-03-0.272848410532D-11 0.117000000000D+05
    0.142960585938D+05 0.185506057739D+01 0.465661287308D-08 0.000000000000D+00
   -0.143336640625D+05-0.105541515350D+01-0.279396772385D-08 0.400000000000D+01
    0.155093789062D+05-0.268728351593D+01 0.000000000000D+00 0.000000000000D+00
22 23  2 21  3 15  0.0 0.718636438250D-04 0.181898940355D-11 0.117000000000D+05
   -0.823209472656D+03 0.287289810181D+01 0.372529029846D-08 0.000000000000D+00
   -0.113166982422D+05-0.122933769226D+01-0.931322574616D-09-0.300000000000D+01
    0.228752299805D+05-0.503640174866D+00-0.186264514923D-08 0.000000000000D+00
23 23  2 21  3 15  0.0-0.733602792025D-04-0.909494701773D-12 0.117000000000D+05
   -0.183861738281D+05 0.227497291565D+01-0.931322574616D-09 0.000000000000D+00
   -0.323527343750D+03-0.854391098023D+00 0.279396772385D-08 0.300000000000D+01
    0.176676005859D+05 0.235209274292D+01-0.279396772385D-08 0.000000000000D+00
24 23  2 21  3 15  0.0 0.148371793330D-03 0.272848410532D-11 0.119100000000D+05
   -0.235444028320D+05 0.449092864990D+00-0.465661287308D-08 0.000000000000D+00
    0.935602099609D+04-0.684642791748D-02 0.465661287308D-08 0.200000000000D+01
    0.301620117188D+04 0.354886913300D+01-0.186264514923D-08 0.000000000000D+00
